NORAD_CAT_ID,OBJECT_NAME,OBJECT_TYPE,EPOCH,MEAN_MOTION,ECCENTRICITY,INCLINATION,RA_OF_ASC_NODE,ARG_OF_PERICENTER,MEAN_ANOMALY,BSTAR,MEAN_MOTION_DOT,MEAN_MOTION_DDOT,TLE_LINE0,TLE_LINE1,TLE_LINE2,SEMIMAJOR_AXIS,PERIOD,APOGEE,PERIGEE,DECAYED
51108.0,STARLINK-3362,PAYLOAD,2024-01-04 02:24:50,15.08846976,0.0001449,53.2167,260.6584,97.2057,262.91,-1.827e-05,-5.79e-06,0.0,0 STARLINK-3362,1 51108U 22005E   24004.10058315 -.00000579  00000-0 -18270-4 0  9992,2 51108  53.2167 260.6584 0001449  97.2057 262.9100 15.08846976109879,6917.859,95.437,540.726,538.722,0.0
51108.0,STARLINK-3362,PAYLOAD,2024-01-04 21:29:28,15.08835671,0.0001445,53.2165,257.0904,97.2137,262.9019,-3.178e-05,-7.94e-06,0.0,0 STARLINK-3362,1 51108U 22005E   24004.89547161 -.00000794  00000-0 -31780-4 0  9990,2 51108  53.2165 257.0904 0001445  97.2137 262.9019 15.08835671108898,6917.894,95.438,540.758,538.759,0.0
51108.0,STARLINK-3362,PAYLOAD,2024-01-05 02:15:37,15.08837923,0.0001507,53.2175,256.1943,93.6605,266.456,-1.716e-05,-5.61e-06,0.0,0 STARLINK-3362,1 51108U 22005E   24005.09418780 -.00000561  00000-0 -17160-4 0  9995,2 51108  53.2175 256.1943 0001507  93.6605 266.4560 15.08837923110021,6917.887,95.438,540.794,538.709,0.0
51108.0,STARLINK-3362,PAYLOAD,2024-01-05 19:44:52,15.08813618,0.0001315,53.2175,252.9243,120.6229,239.4893,0.00044103,6.733e-05,0.0,0 STARLINK-3362,1 51108U 22005E   24005.82282766  .00006733  00000-0  44103-3 0  9990,2 51108  53.2175 252.9243 0001315 120.6229 239.4893 15.08813618110134,6917.961,95.439,540.736,538.916,0.0
51108.0,STARLINK-3362,PAYLOAD,2024-01-05 21:20:15,15.08815268,0.000127,53.2181,252.6265,112.9189,247.1937,0.00044791,6.843e-05,0.0,0 STARLINK-3362,1 51108U 22005E   24005.88906812  .00006843  00000-0  44791-3 0  9996,2 51108  53.2181 252.6265 0001270 112.9189 247.1937 15.08815268109047,6917.956,95.439,540.7,538.942,0.0
51108.0,STARLINK-3362,PAYLOAD,2024-01-05 22:55:38,15.08810689,0.0001341,53.2169,252.33,110.7205,249.3931,0.0005674,8.747e-05,0.0,0 STARLINK-3362,1 51108U 22005E   24005.95530847  .00008747  00000-0  56740-3 0  9997,2 51108  53.2169 252.3300 0001341 110.7205 249.3931 15.08810689110158,6917.97,95.439,540.763,538.907,0.0
51108.0,STARLINK-3362,PAYLOAD,2024-01-06 19:35:39,15.08839774,0.0001604,53.2156,248.4675,116.7946,243.321,4.6459e-05,4.51e-06,0.0,0 STARLINK-3362,1 51108U 22005E   24006.81642917  .00000451  00000-0  46459-4 0  9996,2 51108  53.2156 248.4675 0001604 116.7946 243.3210 15.08839774110289,6917.881,95.438,540.856,538.636,0.0
51108.0,STARLINK-3362,PAYLOAD,2024-01-06 21:11:02,15.0881298,0.0001656,53.2169,248.168,114.7978,245.3187,0.00038337,5.814e-05,0.0,0 STARLINK-3362,1 51108U 22005E   24006.88267249  .00005814  00000-0  38337-3 0  9997,2 51108  53.2169 248.1680 0001656 114.7978 245.3187 15.08812980109199,6917.963,95.439,540.974,538.682,0.0
51108.0,STARLINK-3362,PAYLOAD,2024-01-06 22:46:26,15.08809206,0.0001655,53.2169,247.8719,114.3672,245.7493,0.00043169,6.583e-05,0.0,0 STARLINK-3362,1 51108U 22005E   24006.94891417  .00006583  00000-0  43169-3 0  9997,2 51108  53.2169 247.8719 0001655 114.3672 245.7493 15.08809206110300,6917.975,95.44,540.984,538.695,0.0
51108.0,STARLINK-3362,PAYLOAD,2024-01-07 19:26:26,15.08837051,0.0001809,53.2169,244.0098,113.1427,246.9756,-6.9341e-06,-3.98e-06,0.0,0 STARLINK-3362,1 51108U 22005E   24007.81003446 -.00000398  00000-0 -69341-5 0  9993,2 51108  53.2169 244.0098 0001809 113.1427 246.9756 15.08837051110433,6917.889,95.438,541.006,538.503,0.0
51108.0,STARLINK-3362,PAYLOAD,2024-01-07 21:01:50,15.08837345,0.0001772,53.2167,243.7127,110.6929,249.4253,-6.4046e-06,-3.9e-06,0.0,0 STARLINK-3362,1 51108U 22005E   24007.87627419 -.00000390  00000-0 -64046-5 0  9990,2 51108  53.2167 243.7127 0001772 110.6929 249.4253 15.08837345109342,6917.889,95.438,540.979,538.528,0.0
51108.0,STARLINK-3362,PAYLOAD,2024-01-08 19:17:14,15.08836433,0.0001777,53.2167,239.5499,114.9341,245.1836,5.1681e-05,5.34e-06,0.0,0 STARLINK-3362,1 51108U 22005E   24008.80363442  .00000534  00000-0  51681-4 0  9995,2 51108  53.2167 239.5499 0001777 114.9341 245.1836 15.08836433110582,6917.891,95.438,540.986,538.527,0.0
51108.0,STARLINK-3362,PAYLOAD,2024-01-08 22:28:00,15.08836055,0.0001635,53.2164,238.9545,109.4031,250.7138,4.114e-05,3.67e-06,0.0,0 STARLINK-3362,1 51108U 22005E   24008.93611557  .00000367  00000-0  41140-4 0  9995,2 51108  53.2164 238.9545 0001635 109.4031 250.7138 15.08836055109509,6917.892,95.438,540.889,538.626,0.0
51108.0,STARLINK-3362,PAYLOAD,2024-01-09 14:21:51,15.08837416,0.0001468,53.2158,235.9774,99.2784,260.8374,6.7594e-05,7.88e-06,0.0,0 STARLINK-3362,1 51108U 22005E   24009.59851594  .00000788  00000-0  67594-4 0  9993,2 51108  53.2158 235.9774 0001468  99.2784 260.8374 15.08837416109605,6917.888,95.438,540.769,538.738,0.0
51108.0,STARLINK-3362,PAYLOAD,2024-01-09 19:08:01,15.08839387,0.0001463,53.2159,235.0871,99.3455,260.7703,8.1514e-05,1.01e-05,0.0,0 STARLINK-3362,1 51108U 22005E   24009.79723438  .00001010  00000-0  81514-4 0  9997,2 51108  53.2159 235.0871 0001463  99.3455 260.7703 15.08839387110736,6917.882,95.438,540.759,538.735,0.0
51108.0,STARLINK-3362,PAYLOAD,2024-01-09 22:18:47,15.08840303,0.0001403,53.2157,234.4924,90.7078,269.4075,8.8135e-05,1.115e-05,0.0,0 STARLINK-3362,1 51108U 22005E   24009.92971404  .00001115  00000-0  88135-4 0  9992,2 51108  53.2157 234.4924 0001403  90.7078 269.4075 15.08840303109653,6917.879,95.438,540.715,538.774,0.0
51108.0,STARLINK-3362,PAYLOAD,2024-01-09 23:54:10,15.08842071,0.0001417,53.2155,234.1943,90.5065,269.609,0.0001013,1.325e-05,0.0,0 STARLINK-3362,1 51108U 22005E   24009.99595254  .00001325  00000-0  10130-3 0  9996,2 51108  53.2155 234.1943 0001417  90.5065 269.6090 15.08842071110765,6917.874,95.437,540.719,538.759,0.0
51108.0,STARLINK-3362,PAYLOAD,2024-01-10 18:58:48,15.08838387,0.0001436,53.2157,230.6258,91.792,268.3237,4.6379e-05,4.5e-06,0.0,0 STARLINK-3362,1 51108U 22005E   24010.79083695  .00000450  00000-0  46379-4 0  9990,2 51108  53.2157 230.6258 0001436  91.7920 268.3237 15.08838387110888,6917.885,95.438,540.744,538.757,0.0
51108.0,STARLINK-3362,PAYLOAD,2024-01-10 23:44:57,15.08843512,0.0001473,53.216,229.7336,90.9697,269.1463,8.8643e-05,1.123e-05,0.0,0 STARLINK-3362,1 51108U 22005E   24010.98955280  .00001123  00000-0  88643-4 0  9997,2 51108  53.2160 229.7336 0001473  90.9697 269.1463 15.08843512110911,6917.87,95.437,540.754,538.716,0.0
51108.0,STARLINK-3362,PAYLOAD,2024-01-11 20:24:58,15.08844728,0.0001445,53.2154,225.8668,91.9902,268.1256,3.6732e-05,2.97e-06,0.0,0 STARLINK-3362,1 51108U 22005E   24011.85067248  .00000297  00000-0  36732-4 0  9995,2 51108  53.2154 225.8668 0001445  91.9902 268.1256 15.08844728111042,6917.866,95.437,540.731,538.731,0.0
51108.0,STARLINK-3362,PAYLOAD,2024-01-11 23:35:44,15.08846665,0.0001456,53.2154,225.2719,92.1069,268.009,4.9086e-05,4.93e-06,0.0,0 STARLINK-3362,1 51108U 22005E   24011.98315049  .00000493  00000-0  49086-4 0  9998,2 51108  53.2154 225.2719 0001456  92.1069 268.0090 15.08846665111061,6917.86,95.437,540.732,538.718,0.0
51108.0,STARLINK-3362,PAYLOAD,2024-01-12 20:15:45,15.08837197,0.0001454,53.2163,221.4031,96.6285,263.4873,-4.7341e-06,-3.63e-06,0.0,0 STARLINK-3362,1 51108U 22005E   24012.84427828 -.00000363  00000-0 -47341-5 0  9994,2 51108  53.2163 221.4031 0001454  96.6285 263.4873 15.08837197111195,6917.889,95.438,540.76,538.748,0.0
51108.0,STARLINK-3362,PAYLOAD,2024-01-13 18:31:09,15.08842381,0.000141,53.2159,217.2408,108.3603,251.7542,3.6952e-05,3e-06,0.0,0 STARLINK-3362,1 51108U 22005E   24013.77163428  .00000300  00000-0  36952-4 0  9994,2 51108  53.2159 217.2408 0001410 108.3603 251.7542 15.08842381111338,6917.873,95.437,540.714,538.763,0.0
51108.0,STARLINK-3362,PAYLOAD,2024-01-13 23:17:18,15.08840999,0.0001384,53.2157,216.3493,106.3272,253.7872,2.2787e-05,7.5e-07,0.0,0 STARLINK-3362,1 51108U 22005E   24013.97035547  .00000075  00000-0  22787-4 0  9996,2 51108  53.2157 216.3493 0001384 106.3272 253.7872 15.08840999111364,6917.877,95.437,540.7,538.785,0.0
51108.0,STARLINK-3362,PAYLOAD,2024-01-14 18:21:56,15.08837268,0.0001291,53.2159,212.7812,100.4529,259.6608,5.6745e-05,6.15e-06,0.0,0 STARLINK-3362,1 51108U 22005E   24014.76523886  .00000615  00000-0  56745-4 0  9993,2 51108  53.2159 212.7812 0001291 100.4529 259.6608 15.08837268111488,6917.889,95.438,540.647,538.861,0.0
51108.0,STARLINK-3362,PAYLOAD,2024-01-14 23:08:06,15.08837215,0.0001287,53.2158,211.8894,99.9796,260.1341,5.4531e-05,5.8e-06,0.0,0 STARLINK-3362,1 51108U 22005E   24014.96395942  .00000580  00000-0  54531-4 0  9997,2 51108  53.2158 211.8894 0001287  99.9796 260.1341 15.08837215111517,6917.889,95.438,540.644,538.864,0.0
51108.0,STARLINK-3362,PAYLOAD,2024-01-15 18:12:43,15.08842792,0.0001263,53.2156,208.3212,99.6032,260.5103,6.9201e-05,8.14e-06,0.0,0 STARLINK-3362,1 51108U 22005E   24015.75883580  .00000814  00000-0  69201-4 0  9995,2 51108  53.2156 208.3212 0001263  99.6032 260.5103 15.08842792111633,6917.872,95.437,540.611,538.863,0.0
51108.0,STARLINK-3362,PAYLOAD,2024-01-15 19:48:06,15.08843766,0.0001267,53.2157,208.0237,99.181,260.9325,7.7076e-05,9.39e-06,0.0,0 STARLINK-3362,1 51108U 22005E   24015.82507474  .00000939  00000-0  77076-4 0  9995,2 51108  53.2157 208.0237 0001267  99.1810 260.9325 15.08843766110542,6917.869,95.437,540.61,538.857,0.0
51108.0,STARLINK-3362,PAYLOAD,2024-01-15 22:58:52,15.08842691,0.0001264,53.2155,207.4295,97.1334,262.9802,6.3446e-05,7.22e-06,0.0,0 STARLINK-3362,1 51108U 22005E   24015.95755574  .00000722  00000-0  63446-4 0  9991,2 51108  53.2155 207.4295 0001264  97.1334 262.9802 15.08842691111665,6917.872,95.437,540.612,538.863,0.0
51108.0,STARLINK-3362,PAYLOAD,2024-01-16 13:17:21,15.08830374,0.0001344,53.216,204.753,96.1641,263.9504,0.00013432,1.85e-05,0.0,0 STARLINK-3362,1 51108U 22005E   24016.55372081  .00001850  00000-0  13432-3 0  9998,2 51108  53.2160 204.7530 0001344  96.1641 263.9504 15.08830374110655,6917.91,95.438,540.705,538.845,0.0
